[{"OBJECT_NAME":"ENMAP","OBJECT_ID":"2022-033C","EPOCH":"2026-03-09T22:00:43.226208","MEAN_MOTION":14.74967625,"ECCENTRICITY":0.00010636,"INCLINATION":97.9792,"RA_OF_ASC_NODE":152.5765,"ARG_OF_PERICENTER":93.4267,"MEAN_ANOMALY":266.7063,"EPHEMERIS_TYPE":0,"CLASSIFICATION_TYPE":"U","NORAD_CAT_ID":52159,"ELEMENT_SET_NO":999,"REV_AT_EPOCH":21202,"BSTAR":5.7736752e-5,"MEAN_MOTION_DOT":3.38e-6,"MEAN_MOTION_DDOT":0},{"OBJECT_NAME":"FENGYUN 1C DEB","OBJECT_ID":"1999-025CFT","EPOCH":"2026-03-08T04:20:11.946048","MEAN_MOTION":14.80054847,"ECCENTRICITY":0.00244381,"INCLINATION":99.0303,"RA_OF_ASC_NODE":155.3992,"ARG_OF_PERICENTER":78.5184,"MEAN_ANOMALY":312.2433,"EPHEMERIS_TYPE":0,"CLASSIFICATION_TYPE":"U","NORAD_CAT_ID":31768,"ELEMENT_SET_NO":999,"REV_AT_EPOCH":98135,"BSTAR":0.0039629126,"MEAN_MOTION_DOT":0.00030231,"MEAN_MOTION_DDOT":0}]
